[{"OBJECT_NAME":"TIANMU-1 07","OBJECT_ID":"2023-101A","EPOCH":"2026-03-06T13:47:20.454720","MEAN_MOTION":15.29118809,"ECCENTRICITY":0.00046097,"INCLINATION":97.2728,"RA_OF_ASC_NODE":118.5929,"ARG_OF_PERICENTER":142.4105,"MEAN_ANOMALY":217.7458,"EPHEMERIS_TYPE":0,"CLASSIFICATION_TYPE":"U","NORAD_CAT_ID":57399,"ELEMENT_SET_NO":999,"REV_AT_EPOCH":14596,"BSTAR":0.00029794732,"MEAN_MOTION_DOT":8.352e-5,"MEAN_MOTION_DDOT":0},{"OBJECT_NAME":"STARLINK-34517","OBJECT_ID":"2025-137B","EPOCH":"2026-03-09T21:29:22.672320","MEAN_MOTION":15.30211996,"ECCENTRICITY":0.00010947,"INCLINATION":53.1569,"RA_OF_ASC_NODE":334.4805,"ARG_OF_PERICENTER":107.203,"MEAN_ANOMALY":252.9091,"EPHEMERIS_TYPE":0,"CLASSIFICATION_TYPE":"U","NORAD_CAT_ID":64595,"ELEMENT_SET_NO":999,"REV_AT_EPOCH":4076,"BSTAR":0.00087225943,"MEAN_MOTION_DOT":0.00025573,"MEAN_MOTION_DDOT":0}]
